{
    "links": {
        "self": "http://www.neowsapp.com/rest/v1/neo/3959221?api_key=iIulBulltgU6a56xZRHN4H3l9WmuAYTsLGpBGhQ2"
    },
    "id": "3959221",
    "neo_reference_id": "3959221",
    "name": "(2019 YZ3)",
    "designation": "2019 YZ3",
    "nasa_jpl_url": "http://ssd.jpl.nasa.gov/sbdb.cgi?sstr=3959221",
    "absolute_magnitude_h": 21.3,
    "estimated_diameter": {
        "kilometers": {
            "estimated_diameter_min": 0.1460679643,
            "estimated_diameter_max": 0.3266178974
        },
        "meters": {
            "estimated_diameter_min": 146.0679642714,
            "estimated_diameter_max": 326.6178974458
        },
        "miles": {
            "estimated_diameter_min": 0.090762397,
            "estimated_diameter_max": 0.2029508896
        },
        "feet": {
            "estimated_diameter_min": 479.2256199,
            "estimated_diameter_max": 1071.581062656
        }
    },
    "is_potentially_hazardous_asteroid": true,
    "close_approach_data": [
        {
            "close_approach_date": "2020-01-07",
            "close_approach_date_full": "2020-Jan-07 01:49",
            "epoch_date_close_approach": 1578361740000,
            "relative_velocity": {
                "kilometers_per_second": "17.0993418664",
                "kilometers_per_hour": "61557.6307191282",
                "miles_per_hour": "38249.517821005"
            },
            "miss_distance": {
                "astronomical": "0.1552333886",
                "lunar": "60.3857881654",
                "kilometers": "23222584.287442282",
                "miles": "14429844.7554242116"
            },
            "orbiting_body": "Earth"
        }
    ],
    "orbital_data": {
        "orbit_id": "8",
        "orbit_determination_date": "2020-04-06 05:50:02",
        "first_observation_date": "2019-12-28",
        "last_observation_date": "2020-01-13",
        "data_arc_in_days": 16,
        "observations_used": 69,
        "orbit_uncertainty": "8",
        "minimum_orbit_intersection": ".0119371",
        "jupiter_tisserand_invariant": "3.821",
        "epoch_osculation": "2458850.5",
        "eccentricity": ".5960131183564831",
        "semi_major_axis": "1.755174631835759",
        "inclination": "23.4038831513329",
        "ascending_node_longitude": "275.523071620829",
        "orbital_period": "849.334815376464",
        "perihelion_distance": ".7090675262551361",
        "perihelion_argument": "257.5708926972323",
        "aphelion_distance": "2.801281737416381",
        "perihelion_time": "2458902.000139619404",
        "mean_anomaly": "338.1710935106697",
        "mean_motion": ".4238611128173659",
        "equinox": "J2000",
        "orbit_class": {
            "orbit_class_type": "APO",
            "orbit_class_description": "Near-Earth asteroid orbits which cross the Earth’s orbit similar to that of 1862 Apollo",
            "orbit_class_range": "a (semi-major axis) > 1.0 AU; q (perihelion) < 1.017 AU"
        }
    },
    "is_sentry_object": false
}